ORBCOMM FM20            
1 25416U 98046D   24327.47495898  .00002641  00000+0  94279-3 0  9993
2 25416  44.9940  79.6034 0001878 236.3196 123.7472 14.36318178374577
ORBCOMM FM16            
1 25417U 98046E   24326.86025613  .00003840  00000+0  13123-2 0  9990
2 25417  44.9936  76.5584 0004033 302.6111  57.4347 14.37675989374402
ORBCOMM FM15            
1 25418U 98046F   24326.85760144  .00002941  00000+0  10227-2 0  9998
2 25418  44.9969  81.1294 0003525 302.1176  57.9330 14.37355334374574
ORBCOMM FM14            
1 25419U 98046G   24326.64414609  .00003140  00000+0  10826-2 0  9995
2 25419  44.9957  80.9127 0003033 280.3809  79.6697 14.37633864374336
ORBCOMM FM13            
1 25420U 98046H   24326.94182403  .00003104  00000+0  10924-2 0  9993
2 25420  44.9969  85.6418 0004907 293.3324  66.7007 14.36639109374556
ORBCOMM FM21            
1 25475U 98053A   24326.14471037  .00001688  00000+0  61852-3 0  9999
2 25475  45.0070 174.0968 0000603 228.6518 131.4278 14.36449174367327
ORBCOMM FM22            
1 25476U 98053B   24326.80191054  .00002453  00000+0  86328-3 0  9997
2 25476  45.0054 167.3247 0002435 242.8948 117.1651 14.37227488367425
ORBCOMM FM23            
1 25477U 98053C   24327.13930789  .00002051  00000+0  73974-3 0  9998
2 25477  45.0067 171.7400 0001595 242.5192 117.5494 14.36539875367923
